ORBCOMM FM20            
1 25416U 98046D   25084.62910621  .00003316  00000+0  11563-2 0  9991
2 25416  44.9923 216.9183 0002113 211.3981 148.6741 14.36961187392240
ORBCOMM FM16            
1 25417U 98046E   25084.51346091  .00004520  00000+0  15090-2 0  9991
2 25417  44.9922 210.1102 0005945 228.9816 131.0519 14.38560475392206
ORBCOMM FM15            
1 25418U 98046F   25084.46919698  .00004361  00000+0  14675-2 0  9996
2 25418  44.9950 215.2178 0005429 228.6365 131.4016 14.38220221392196
ORBCOMM FM14            
1 25419U 98046G   25083.81299831  .00004550  00000+0  15191-2 0  9999
2 25419  44.9940 216.8034 0004384 218.0112 142.0428 14.38549271392066
ORBCOMM FM13            
1 25420U 98046H   25084.48116568  .00003772  00000+0  12973-2 0  9990
2 25420  44.9959 220.8137 0006391 213.7634 146.2807 14.37385469391194
ORBCOMM FM21            
1 25475U 98053A   25084.88657158  .00003030  00000+0  10577-2 0  9992
2 25475  45.0081 303.9159 0001237 142.2126 217.8809 14.37099367385598
ORBCOMM FM22            
1 25476U 98053B   25084.63470798  .00003741  00000+0  12700-2 0  9998
2 25476  45.0071 300.6142 0003101 152.9730 207.1280 14.38055298385608
ORBCOMM FM23            
1 25477U 98053C   25084.61912553  .00003224  00000+0  11189-2 0  9993
2 25477  45.0083 307.4147 0002155 145.2901 214.8087 14.37250265385379
